     3.04           N: NAVIGATION DATA  G: GPS              RINEX VERSION / TYPE
SimGEN V8.02.00     Spirent             20230108 100000 UTC PGM / RUN BY / DATE
GPSA   2.4214D-08  7.4506D-09 -1.1921D-07  5.9605D-08 J 01  IONOSPHERIC CORR
GPSB   1.4746D+05 -1.9661D+05  0.0000D+00  2.6214D+05 J 01  IONOSPHERIC CORR
GPUT  5.5879354477D-09 0.000000000D+00 286720 2244          TIME SYSTEM CORR
    18                                                      LEAP SECONDS
                                                            END OF HEADER
G01 2023 01 08 10 00 00 2.270801778650D-04-4.774847184308D-12 0.000000000000D+00
     4.800000000000D+01 4.684375000000D+01 4.114099940205D-09-9.548443013955D-01
     2.561137080193D-06 1.217794988770D-02 1.572072505951D-06 5.153651281357D+03
     3.600000000000D+04 9.685754776001D-08-1.509330417236D+00 2.831220626831D-07
     9.889932931861D-01 3.624375000000D+02 9.377089341753D-01-8.193912737927D-09
     2.285809498855D-11 1.000000000000D+00 2.244000000000D+03 0.000000000000D+00
     1.200000000000D+00 0.000000000000D+00 4.656612873077D-09 4.800000000000D+01
     3.600000000000D+04 4.000000000000D+00 0.000000000000D+00 0.000000000000D+00
G02 2023 01 08 10 00 00-6.285528361332D-04 2.273736754432D-12 0.000000000000D+00
     7.400000000000D+01 7.253125000000D+01 4.387325606865D-09-1.924117401599D+00
     4.112720489502D-06 2.012357395142D-02 7.413327693939D-07 5.153693735123D+03
     3.600000000000D+04 1.247972249985D-07-1.605375292245D+00 4.172325134277D-07
     9.667366341984D-01 3.710000000000D+02-1.343086657270D+00-8.171411800672D-09
     8.178912113090D-11 1.000000000000D+00 2.244000000000D+03 0.000000000000D+00
     1.200000000000D+00 0.000000000000D+00-1.769512891769D-08 7.400000000000D+01
     3.600000000000D+04 4.000000000000D+00 0.000000000000D+00 0.000000000000D+00
G03 2023 01 08 10 00 00-3.733077537617D-04 1.932676241267D-12 0.000000000000D+00
     5.100000000000D+01-1.160625000000D+02 4.006238304477D-09-2.096691020250D+00
    -5.951151251793D-06 4.433040856384D-03 5.014240741730D-06 5.153747385025D+03
     3.600000000000D+04 6.705522537231D-08-4.772349837584D-01-9.126961231232D-08
     9.772872565541D-01 2.923437500000D+02 1.030680735510D+00-7.838897950136D-09
    -2.121516941125D-10 1.000000000000D+00 2.244000000000D+03 0.000000000000D+00
     1.200000000000D+00 0.000000000000D+00 1.862645149231D-09 5.100000000000D+01
     3.600000000000D+04 4.000000000000D+00 0.000000000000D+00 0.000000000000D+00
G04 2023 01 08 10 00 00-5.292503192322D-05 7.617018127348D-12 0.000000000000D+00
     2.000000000000D+01-4.340625000000D+01 4.232319150224D-09 8.914287716611D-01
    -2.184882760048D-06 2.258920576423D-03 1.008063554764D-05 5.153725412369D+03
     3.600000000000D+04 2.980232238770D-08 6.035245862158D-01 6.332993507385D-08
     9.623550774489D-01 1.856875000000D+02-3.090762033250D+00-7.726750421598D-09
     4.364467511876D-10 1.000000000000D+00 2.244000000000D+03 0.000000000000D+00
     1.200000000000D+00 0.000000000000D+00-4.656612873077D-09 2.000000000000D+01
     3.600000000000D+04 4.000000000000D+00 0.000000000000D+00 0.000000000000D+00
G05 2023 01 08 10 00 00-1.111789097194D-04-1.477928890381D-12 0.000000000000D+00
     7.700000000000D+01-1.168437500000D+02 4.420541276145D-09 1.605158036347D+00
    -6.150454282761D-06 5.805529188365D-03 4.829838871956D-06 5.153595098495D+03
     3.600000000000D+04-1.024454832077D-07-5.219521501564D-01-8.195638656616D-08
     9.642850092212D-01 2.915625000000D+02 1.135663808179D+00-8.161411384115D-09
    -2.442958901901D-10 1.000000000000D+00 2.244000000000D+03 0.000000000000D+00
     1.200000000000D+00 0.000000000000D+00-1.117587089539D-08 7.700000000000D+01
     3.600000000000D+04 4.000000000000D+00 0.000000000000D+00 0.000000000000D+00
G06 2023 01 08 10 00 00 5.550097557716D-04 6.366462912410D-12 0.000000000000D+00
     7.200000000000D+01 4.703125000000D+01 4.048740074847D-09-6.781080700788D-01
     2.434477210045D-06 2.850017976016D-03 1.601874828339D-06 5.153586952209D+03
     3.600000000000D+04-3.166496753693D-08-1.517639104880D+00 3.725290298462D-09
     9.882546345323D-01 3.648437500000D+02-8.874362781059D-01-8.103551831175D-09
     7.928901699153D-11 1.000000000000D+00 2.244000000000D+03 0.000000000000D+00
     1.200000000000D+00 0.000000000000D+00 3.725290298462D-09 7.200000000000D+01
     3.600000000000D+04 4.000000000000D+00 0.000000000000D+00 0.000000000000D+00
G07 2023 01 08 10 00 00 2.621803359943D-04-6.025402399246D-12 0.000000000000D+00
     1.600000000000D+01 1.281250000000D+01 5.040567102709D-09-1.561453656710D+00
     7.543712854385D-07 1.658225082792D-02 5.047768354416D-06 5.153594539642D+03
     3.600000000000D+04 3.427267074585D-07 1.619805055360D+00-1.862645149231D-09
     9.499389878118D-01 2.701250000000D+02-2.230958684544D+00-8.057835641198D-09
     3.696582548929D-10 1.000000000000D+00 2.244000000000D+03 0.000000000000D+00
     1.200000000000D+00 0.000000000000D+00-1.117587089539D-08 1.600000000000D+01
     3.600000000000D+04 4.000000000000D+00 0.000000000000D+00 0.000000000000D+00
G08 2023 01 08 10 00 00-1.025573583320D-04-1.818989403546D-12 0.000000000000D+00
     1.200000000000D+01 1.102500000000D+02 4.267320608175D-09 1.299930892233D+00
     6.010755896568D-06 8.121662773192D-03 9.791925549507D-06 5.153649291992D+03
     3.600000000000D+04-7.450580596924D-09-2.597482725936D+00 1.136213541031D-07
     9.609191462766D-01 1.879062500000D+02 1.886535940423D-01-7.887114244252D-09
    -2.135803250493D-10 1.000000000000D+00 2.244000000000D+03 0.000000000000D+00
     1.200000000000D+00 0.000000000000D+00 5.122274160385D-09 1.200000000000D+01
     3.600000000000D+04 4.000000000000D+00 0.000000000000D+00 0.000000000000D+00
G09 2023 01 08 10 00 00-2.400708253845D-04 6.480149750132D-12 0.000000000000D+00
     3.100000000000D+01-4.459375000000D+01 4.296607542379D-09 1.626504761526D+00
    -2.326443791389D-06 2.604606212117D-03 1.008808612823D-05 5.153698236465D+03
     3.600000000000D+04 8.009374141693D-08 5.479585256092D-01-2.607703208923D-08
     9.555956002781D-01 1.814375000000D+02 1.953135884315D+00-7.776038188917D-09
     4.278749655669D-10 1.000000000000D+00 2.244000000000D+03 0.000000000000D+00
     1.200000000000D+00 0.000000000000D+00 9.313225746155D-10 3.100000000000D+01
     3.600000000000D+04 4.000000000000D+00 0.000000000000D+00 0.000000000000D+00
G10 2023 01 08 10 00 00-1.953465107363D-05-1.591615728103D-12 0.000000000000D+00
     9.800000000000D+01-1.341562500000D+02 3.991951995110D-09-3.015179293441D+00
    -6.945803761482D-06 8.382096653804D-03 5.120411515236D-06 5.153690656662D+03
     3.600000000000D+04 2.235174179077D-08-4.799159824270D-01-8.009374141693D-08
     9.770478162262D-01 2.901250000000D+02-2.464522579178D+00-7.826754587173D-09
    -1.885792836555D-10 1.000000000000D+00 2.244000000000D+03 0.000000000000D+00
     1.200000000000D+00 0.000000000000D+00 2.328306436539D-09 9.800000000000D+01
     3.600000000000D+04 4.000000000000D+00 0.000000000000D+00 0.000000000000D+00
G11 2023 01 08 10 00 00-7.397820445476D-05-8.526512829121D-12 0.000000000000D+00
     4.000000000000D+02 3.750000000000D+01 4.658408327120D-09 5.437348595690D-01
     1.966953277588D-06 7.957872003317D-04 7.152557373047D-07 5.153687408447D+03
     3.600000000000D+04 4.284083843231D-08-1.473130121783D+00 4.284083843231D-08
     9.643373341893D-01 3.691250000000D+02-2.704448824498D+00-8.383920652519D-09
     3.357282701443D-11 1.000000000000D+00 2.244000000000D+03 0.000000000000D+00
     1.200000000000D+00 0.000000000000D+00-8.847564458847D-09 4.000000000000D+02
     3.600000000000D+04 4.000000000000D+00 0.000000000000D+00 0.000000000000D+00
G12 2023 01 08 10 00 00-3.255806514062D-04-4.547473508865D-12 0.000000000000D+00
     1.120000000000D+02 2.875000000000D+00 4.464828835185D-09-2.339885730545D+00
     1.545995473862D-07 8.816565969028D-03 8.612871170044D-06 5.153677780151D+03
     3.600000000000D+04 1.434236764908D-07 2.734230093762D+00 4.284083843231D-08
     9.669633616310D-01 2.163750000000D+02 1.325198816216D+00-7.653890243822D-09
    -4.439470636057D-10 1.000000000000D+00 2.244000000000D+03 0.000000000000D+00
     1.200000000000D+00 0.000000000000D+00-1.257285475731D-08 1.120000000000D+02
     3.600000000000D+04 4.000000000000D+00 0.000000000000D+00 0.000000000000D+00
G13 2023 01 08 10 00 00 4.558012951748D-04 6.480149750132D-12 0.000000000000D+00
     7.400000000000D+01-2.593750000000D+01 4.151601502295D-09 8.002385012227D-01
    -1.415610313416D-06 6.750243017450D-03 1.029670238495D-05 5.153673480988D+03
     3.600000000000D+04-1.024454832077D-07 7.059907447425D-01 1.490116119385D-08
     9.694131092729D-01 1.859062500000D+02 9.466632392266D-01-7.767823561031D-09
     4.557332688342D-10 1.000000000000D+00 2.244000000000D+03 0.000000000000D+00
     1.200000000000D+00 0.000000000000D+00-1.164153218269D-08 7.400000000000D+01
     3.600000000000D+04 4.000000000000D+00 0.000000000000D+00 0.000000000000D+00
G14 2023 01 08 10 00 00-5.351218715077D-05 7.389644451905D-12 0.000000000000D+00
     5.660000000000D+02-7.343750000000D+00 4.828772566331D-09-2.305579174029D+00
    -3.725290298462D-07 2.536277403124D-03 8.614733815193D-06 5.153659179688D+03
     3.600000000000D+04-4.470348358154D-08 2.697788851242D+00-5.401670932770D-08
     9.502913110360D-01 2.094062500000D+02-3.073174517574D+00-8.000690403726D-09
    -5.021637742797D-10 1.000000000000D+00 2.244000000000D+03 0.000000000000D+00
     1.200000000000D+00 0.000000000000D+00-7.916241884232D-09 5.660000000000D+02
     3.600000000000D+04 4.000000000000D+00 0.000000000000D+00 0.000000000000D+00
